NORAD_CAT_ID,OBJECT_NAME,OBJECT_TYPE,EPOCH,MEAN_MOTION,ECCENTRICITY,INCLINATION,RA_OF_ASC_NODE,ARG_OF_PERICENTER,MEAN_ANOMALY,BSTAR,MEAN_MOTION_DOT,MEAN_MOTION_DDOT,TLE_LINE0,TLE_LINE1,TLE_LINE2,SEMIMAJOR_AXIS,PERIOD,APOGEE,PERIGEE,DECAYED
55753.0,STARLINK-5617,PAYLOAD,2024-07-10 11:00:16,14.98397938,0.000343,70.0011,335.4686,273.7371,86.3395,0.00055155,6.506e-05,0.0,0 STARLINK-5617,1 55753U 23028N   24192.45852772  .00006506  00000-0  55155-3 0  9999,2 55753  70.0011 335.4686 0003430 273.7371  86.3395 14.98397938 75086,6949.983,96.103,574.232,569.464,0.0
55753.0,STARLINK-5617,PAYLOAD,2024-07-10 19:01:01,14.98332649,0.0003127,70.0008,334.6268,269.1744,90.9057,-0.00019671,-2.439e-05,0.0,0 STARLINK-5617,1 55753U 23028N   24192.79238178 -.00002439  00000-0 -19671-3 0  9990,2 55753  70.0008 334.6268 0003127 269.1744  90.9057 14.98332649 75135,6950.185,96.107,574.223,569.876,0.0
55753.0,STARLINK-5617,PAYLOAD,2024-07-11 14:14:39,14.98311817,0.000298,70.0013,332.6074,269.5657,90.516,-2.4917e-05,-3.9e-06,0.0,0 STARLINK-5617,1 55753U 23028N   24193.59351245 -.00000390  00000-0 -24917-4 0  9994,2 55753  70.0013 332.6074 0002980 269.5657  90.5160 14.98311817 75255,6950.249,96.108,574.185,570.043,0.0
55753.0,STARLINK-5617,PAYLOAD,2024-07-12 03:03:10,14.98699719,0.0003423,70.0002,331.257,295.8331,64.2474,0.003982,0.00048208,0.0,0 STARLINK-5617,1 55753U 23028N   24194.12720977  .00048208  00000-0  39820-2 0  9991,2 55753  70.0002 331.2570 0003423 295.8331  64.2474 14.98699719 75338,6949.05,96.083,573.293,568.536,0.0
55753.0,STARLINK-5617,PAYLOAD,2024-07-12 12:40:22,14.98383301,0.0003502,70.0009,330.25,271.8176,88.2582,-0.00056851,-6.879e-05,0.0,0 STARLINK-5617,1 55753U 23028N   24194.52804321 -.00006879  00000-0 -56851-3 0  9995,2 55753  70.0009 330.2500 0003502 271.8176  88.2582 14.98383301 75395,6950.028,96.104,574.327,569.459,0.0
55753.0,STARLINK-5617,PAYLOAD,2024-07-12 14:16:30,14.98382713,0.0003456,70.0011,330.0819,272.3273,87.7491,-0.00056116,-6.792e-05,0.0,0 STARLINK-5617,1 55753U 23028N   24194.59480101 -.00006792  00000-0 -56116-3 0  9996,2 55753  70.0011 330.0819 0003456 272.3273  87.7491 14.98382713 75402,6950.03,96.104,574.297,569.493,0.0
55753.0,STARLINK-5617,PAYLOAD,2024-07-12 19:04:54,14.98351623,0.0002958,70.0014,329.5776,269.845,90.237,9.761e-05,1.072e-05,0.0,0 STARLINK-5617,1 55753U 23028N   24194.79508013  .00001072  00000-0  97610-4 0  9990,2 55753  70.0014 329.5776 0002958 269.8450  90.2370 14.98351623 75438,6950.126,96.106,574.047,569.935,0.0
55753.0,STARLINK-5617,PAYLOAD,2024-07-13 14:18:30,14.98345601,0.0003095,70.0015,327.5578,269.2875,90.7929,-4.6446e-05,-6.47e-06,0.0,0 STARLINK-5617,1 55753U 23028N   24195.59619141 -.00000647  00000-0 -46446-4 0  9994,2 55753  70.0015 327.5578 0003095 269.2875  90.7929 14.98345601 75552,6950.145,96.106,574.161,569.859,0.0
55753.0,STARLINK-5617,PAYLOAD,2024-07-13 19:06:54,14.98350945,0.0002975,70.0016,327.0531,270.272,89.8098,-1.4723e-05,-2.69e-06,0.0,0 STARLINK-5617,1 55753U 23028N   24195.79646213 -.00000269  00000-0 -14723-4 0  9999,2 55753  70.0016 327.0531 0002975 270.2720  89.8098 14.98350945 75580,6950.128,96.106,574.061,569.925,0.0
55753.0,STARLINK-5617,PAYLOAD,2024-07-14 12:44:20,14.98332187,0.0003028,70.0016,325.2015,270.738,89.3433,4.3517e-05,4.26e-06,0.0,0 STARLINK-5617,1 55753U 23028N   24196.53078914  .00000426  00000-0  43517-4 0  9995,2 55753  70.0016 325.2015 0003028 270.7380  89.3433 14.98332187 75692,6950.186,96.107,574.156,569.947,0.0
55753.0,STARLINK-5617,PAYLOAD,2024-07-14 17:32:43,14.9833778,0.0002925,70.0019,324.6973,268.3808,91.7016,0.00010596,1.172e-05,0.0,0 STARLINK-5617,1 55753U 23028N   24196.73106344  .00001172  00000-0  10596-3 0  9995,2 55753  70.0019 324.6973 0002925 268.3808  91.7016 14.98337780 75726,6950.169,96.107,574.067,570.001,0.0
55753.0,STARLINK-5617,PAYLOAD,2024-07-15 12:46:21,14.98328657,0.0002907,70.0019,322.6778,264.5336,95.5491,1.1021e-05,3.9e-07,0.0,0 STARLINK-5617,1 55753U 23028N   24197.53219051  .00000039  00000-0  11021-4 0  9990,2 55753  70.0019 322.6778 0002907 264.5336  95.5491 14.98328657 75846,6950.197,96.107,574.082,570.042,0.0
55753.0,STARLINK-5617,PAYLOAD,2024-07-15 14:22:29,14.98329818,0.0002866,70.0019,322.509,265.0128,95.0704,4.9815e-05,5.01e-06,0.0,0 STARLINK-5617,1 55753U 23028N   24197.59894875  .00000501  00000-0  49815-4 0  9995,2 55753  70.0019 322.5090 0002866 265.0128  95.0704 14.98329818 75854,6950.193,96.107,574.05,570.067,0.0
55753.0,STARLINK-5617,PAYLOAD,2024-07-15 17:34:59,14.98332973,0.0003172,70.0021,322.1721,271.2489,88.8307,5.1072e-05,5.16e-06,0.0,0 STARLINK-5617,1 55753U 23028N   24197.73263138  .00000516  00000-0  51072-4 0  9997,2 55753  70.0021 322.1721 0003172 271.2489  88.8307 14.98332973 75871,6950.184,96.107,574.253,569.844,0.0
55753.0,STARLINK-5617,PAYLOAD,2024-07-16 01:35:05,14.98722716,0.000449,70.0021,321.3294,272.8489,87.2156,0.0041459,0.00050245,0.0,0 STARLINK-5617,1 55753U 23028N   24198.06603012  .00050245  00000-0  41459-2 0  9993,2 55753  70.0021 321.3294 0004490 272.8489  87.2156 14.98722716 75927,6948.979,96.082,573.964,567.724,0.0
55753.0,STARLINK-5617,PAYLOAD,2024-07-16 14:24:44,14.9833169,0.0002753,70.0021,319.9841,264.3531,95.7314,5.4711e-05,5.6e-06,0.0,0 STARLINK-5617,1 55753U 23028N   24198.60051118  .00000560  00000-0  54711-4 0  9999,2 55753  70.0021 319.9841 0002753 264.3531  95.7314 14.98331690 76009,6950.188,96.107,573.966,570.139,0.0
55753.0,STARLINK-5617,PAYLOAD,2024-07-16 22:25:23,14.98349378,0.000345,70.0007,319.1415,268.7229,91.3535,0.00013373,1.504e-05,0.0,0 STARLINK-5617,1 55753U 23028N   24198.93429458  .00001504  00000-0  13373-3 0  9998,2 55753  70.0007 319.1415 0003450 268.7229  91.3535 14.98349378 76053,6950.133,96.106,574.396,569.6,0.0
55753.0,STARLINK-5617,PAYLOAD,2024-07-17 11:14:30,14.98316338,0.0002976,70.0019,317.7959,269.3233,90.7585,-0.00010342,-1.326e-05,0.0,0 STARLINK-5617,1 55753U 23028N   24199.46840494 -.00001326  00000-0 -10342-3 0  9991,2 55753  70.0019 317.7959 0002976 269.3233  90.7585 14.98316338 76134,6950.235,96.108,574.169,570.032,0.0
55753.0,STARLINK-5617,PAYLOAD,2024-07-17 14:26:46,14.98317621,0.0003111,70.0007,317.4575,270.1412,89.939,-0.00012547,-1.589e-05,0.0,0 STARLINK-5617,1 55753U 23028N   24199.60192613 -.00001589  00000-0 -12547-3 0  9990,2 55753  70.0007 317.4575 0003111 270.1412  89.9390 14.98317621 76155,6950.231,96.108,574.258,569.934,0.0
55753.0,STARLINK-5617,PAYLOAD,2024-07-17 17:39:01,14.9832753,0.000295,70.0014,317.1224,263.5448,96.5375,-3.1267e-05,-4.66e-06,0.0,0 STARLINK-5617,1 55753U 23028N   24199.73543759 -.00000466  00000-0 -31267-4 0  9999,2 55753  70.0014 317.1224 0002950 263.5448  96.5375 14.98327530 76175,6950.201,96.107,574.116,570.015,0.0
55753.0,STARLINK-5617,PAYLOAD,2024-07-18 14:28:46,14.98336447,0.000287,70.0015,314.9353,266.6823,93.4008,1.8574e-05,1.29e-06,0.0,0 STARLINK-5617,1 55753U 23028N   24200.60331406  .00000129  00000-0  18574-4 0  9992,2 55753  70.0015 314.9353 0002870 266.6823  93.4008 14.98336447 76307,6950.173,96.107,574.033,570.043,0.0
55753.0,STARLINK-5617,PAYLOAD,2024-07-18 17:41:02,14.98338019,0.0002856,70.0016,314.599,266.2877,93.7956,4.8386e-05,4.85e-06,0.0,0 STARLINK-5617,1 55753U 23028N   24200.73683243  .00000485  00000-0  48386-4 0  9994,2 55753  70.0016 314.5990 0002856 266.2877  93.7956 14.98338019 76324,6950.168,96.106,574.018,570.048,0.0
55753.0,STARLINK-5617,PAYLOAD,2024-07-19 14:30:47,14.98332168,0.000274,70.0018,312.4114,258.2141,101.8711,0.00026894,3.118e-05,0.0,0 STARLINK-5617,1 55753U 23028N   24201.60471138  .00003118  00000-0  26894-3 0  9994,2 55753  70.0018 312.4114 0002740 258.2141 101.8711 14.98332168 76451,6950.186,96.107,573.956,570.147,0.0
55753.0,STARLINK-5617,PAYLOAD,2024-07-19 17:43:02,14.98336071,0.0002758,70.0017,312.0744,259.7648,100.32,0.00027631,3.206e-05,0.0,0 STARLINK-5617,1 55753U 23028N   24201.73822874  .00003206  00000-0  27631-3 0  9993,2 55753  70.0017 312.0744 0002758 259.7648 100.3200 14.98336071 76478,6950.174,96.107,573.956,570.122,0.0
55753.0,STARLINK-5617,PAYLOAD,2024-07-20 00:07:35,14.98335463,0.0002811,70.0015,311.399,266.4372,93.6466,7.8123e-05,8.39e-06,0.0,0 STARLINK-5617,1 55753U 23028N   24202.00527292  .00000839  00000-0  78123-4 0  9992,2 55753  70.0015 311.3990 0002811 266.4372  93.6466 14.98335463 76517,6950.176,96.107,573.995,570.087,0.0
55753.0,STARLINK-5617,PAYLOAD,2024-07-20 14:32:48,14.98336304,0.0002319,70.0018,309.885,259.8333,100.2564,-1.1362e-05,-2.28e-06,0.0,0 STARLINK-5617,1 55753U 23028N   24202.60611345 -.00000228  00000-0 -11362-4 0  9997,2 55753  70.0018 309.8850 0002319 259.8333 100.2564 14.98336304 76602,6950.173,96.107,573.65,570.427,0.0
55753.0,STARLINK-5617,PAYLOAD,2024-07-20 17:45:04,14.9833641,0.0002713,70.0016,309.5493,263.9943,96.0907,7.9849e-05,8.6e-06,0.0,0 STARLINK-5617,1 55753U 23028N   24202.73963060  .00000860  00000-0  79849-4 0  9999,2 55753  70.0016 309.5493 0002713 263.9943  96.0907 14.98336410 76624,6950.173,96.107,573.924,570.152,0.0
55753.0,STARLINK-5617,PAYLOAD,2024-07-21 00:09:36,14.98333807,0.0002718,70.0016,308.8746,266.3192,93.7656,-1.7407e-05,-3.01e-06,0.0,0 STARLINK-5617,1 55753U 23028N   24203.00667358 -.00000301  00000-0 -17407-4 0  9995,2 55753  70.0016 308.8746 0002718 266.3192  93.7656 14.98333807 76661,6950.181,96.107,573.935,570.157,0.0
55753.0,STARLINK-5617,PAYLOAD,2024-07-21 14:34:49,14.98326204,0.0002789,70.002,307.3607,265.0803,95.0038,-4.5977e-05,-6.41e-06,0.0,0 STARLINK-5617,1 55753U 23028N   24203.60751872 -.00000641  00000-0 -45977-4 0  9996,2 55753  70.0020 307.3607 0002789 265.0803  95.0038 14.98326204 76751,6950.205,96.107,574.008,570.131,0.0
55753.0,STARLINK-5617,PAYLOAD,2024-07-21 16:10:57,14.98327438,0.0002778,70.002,307.1924,264.4368,95.6474,-3.292e-05,-4.86e-06,0.0,0 STARLINK-5617,1 55753U 23028N   24203.67427762 -.00000486  00000-0 -32920-4 0  9992,2 55753  70.0020 307.1924 0002778 264.4368  95.6474 14.98327438 76769,6950.201,96.107,573.997,570.135,0.0
